<?xml version="1.0" encoding="UTF-8"?>
<ndm xmlns:xsi="http://www.w3.org/2001/XMLSchema-instance" xsi:noNamespaceSchemaLocation="https://sanaregistry.org/r/ndmxml_unqualified/ndmxml-2.0.0-master-2.0.xsd">
<omm id="CCSDS_OMM_VERS" version="2.0">
<header><CREATION_DATE/><ORIGINATOR/></header><body><segment><metadata><OBJECT_NAME>IRIDIUM 63</OBJECT_NAME><OBJECT_ID>1998-021B</OBJECT_ID><CENTER_NAME>EARTH</CENTER_NAME><REF_FRAME>TEME</REF_FRAME><TIME_SYSTEM>UTC</TIME_SYSTEM><MEAN_ELEMENT_THEORY>SGP4</MEAN_ELEMENT_THEORY></metadata><data><meanElements><EPOCH>2025-11-21T04:13:15.205152</EPOCH><MEAN_MOTION>14.36711952</MEAN_MOTION><ECCENTRICITY>.00024</ECCENTRICITY><INCLINATION>86.4007</INCLINATION><RA_OF_ASC_NODE>16.2619</RA_OF_ASC_NODE><ARG_OF_PERICENTER>97.3424</ARG_OF_PERICENTER><MEAN_ANOMALY>262.8046</MEAN_ANOMALY></meanElements><tleParameters><EPHEMERIS_TYPE>0</EPHEMERIS_TYPE><CLASSIFICATION_TYPE>U</CLASSIFICATION_TYPE><NORAD_CAT_ID>25286</NORAD_CAT_ID><ELEMENT_SET_NO>999</ELEMENT_SET_NO><REV_AT_EPOCH>44638</REV_AT_EPOCH><BSTAR>.1431E-3</BSTAR><MEAN_MOTION_DOT>.441E-5</MEAN_MOTION_DOT><MEAN_MOTION_DDOT>0</MEAN_MOTION_DDOT></tleParameters></data></segment></body></omm>
<omm id="CCSDS_OMM_VERS" version="2.0">
<header><CREATION_DATE/><ORIGINATOR/></header><body><segment><metadata><OBJECT_NAME>IRIDIUM 69</OBJECT_NAME><OBJECT_ID>1998-026A</OBJECT_ID><CENTER_NAME>EARTH</CENTER_NAME><REF_FRAME>TEME</REF_FRAME><TIME_SYSTEM>UTC</TIME_SYSTEM><MEAN_ELEMENT_THEORY>SGP4</MEAN_ELEMENT_THEORY></metadata><data><meanElements><EPOCH>2025-11-21T02:55:36.422976</EPOCH><MEAN_MOTION>14.41183437</MEAN_MOTION><ECCENTRICITY>.0001917</ECCENTRICITY><INCLINATION>86.4001</INCLINATION><RA_OF_ASC_NODE>29.0752</RA_OF_ASC_NODE><ARG_OF_PERICENTER>166.1135</ARG_OF_PERICENTER><MEAN_ANOMALY>194.0117</MEAN_ANOMALY></meanElements><tleParameters><EPHEMERIS_TYPE>0</EPHEMERIS_TYPE><CLASSIFICATION_TYPE>U</CLASSIFICATION_TYPE><NORAD_CAT_ID>25319</NORAD_CAT_ID><ELEMENT_SET_NO>999</ELEMENT_SET_NO><REV_AT_EPOCH>44566</REV_AT_EPOCH><BSTAR>.18611E-3</BSTAR><MEAN_MOTION_DOT>.62E-5</MEAN_MOTION_DOT><MEAN_MOTION_DDOT>0</MEAN_MOTION_DDOT></tleParameters></data></segment></body></omm>
<omm id="CCSDS_OMM_VERS" version="2.0">
<header><CREATION_DATE/><ORIGINATOR/></header><body><segment><metadata><OBJECT_NAME>IRIDIUM 71</OBJECT_NAME><OBJECT_ID>1998-026B</OBJECT_ID><CENTER_NAME>EARTH</CENTER_NAME><REF_FRAME>TEME</REF_FRAME><TIME_SYSTEM>UTC</TIME_SYSTEM><MEAN_ELEMENT_THEORY>SGP4</MEAN_ELEMENT_THEORY></metadata><data><meanElements><EPOCH>2025-11-21T02:38:54.187296</EPOCH><MEAN_MOTION>14.41299601</MEAN_MOTION><ECCENTRICITY>.0000599</ECCENTRICITY><INCLINATION>86.4002</INCLINATION><RA_OF_ASC_NODE>23.7551</RA_OF_ASC_NODE><ARG_OF_PERICENTER>21.5540</ARG_OF_PERICENTER><MEAN_ANOMALY>338.5685</MEAN_ANOMALY></meanElements><tleParameters><EPHEMERIS_TYPE>0</EPHEMERIS_TYPE><CLASSIFICATION_TYPE>U</CLASSIFICATION_TYPE><NORAD_CAT_ID>25320</NORAD_CAT_ID><ELEMENT_SET_NO>999</ELEMENT_SET_NO><REV_AT_EPOCH>44619</REV_AT_EPOCH><BSTAR>.1012E-3</BSTAR><MEAN_MOTION_DOT>.347E-5</MEAN_MOTION_DOT><MEAN_MOTION_DDOT>0</MEAN_MOTION_DDOT></tleParameters></data></segment></body></omm>
<omm id="CCSDS_OMM_VERS" version="2.0">
<header><CREATION_DATE/><ORIGINATOR/></header><body><segment><metadata><OBJECT_NAME>IRIDIUM 73</OBJECT_NAME><OBJECT_ID>1998-032C</OBJECT_ID><CENTER_NAME>EARTH</CENTER_NAME><REF_FRAME>TEME</REF_FRAME><TIME_SYSTEM>UTC</TIME_SYSTEM><MEAN_ELEMENT_THEORY>SGP4</MEAN_ELEMENT_THEORY></metadata><data><meanElements><EPOCH>2025-11-21T03:20:19.722624</EPOCH><MEAN_MOTION>14.51947934</MEAN_MOTION><ECCENTRICITY>.0002403</ECCENTRICITY><INCLINATION>86.4408</INCLINATION><RA_OF_ASC_NODE>340.1715</RA_OF_ASC_NODE><ARG_OF_PERICENTER>108.3488</ARG_OF_PERICENTER><MEAN_ANOMALY>251.7979</MEAN_ANOMALY></meanElements><tleParameters><EPHEMERIS_TYPE>0</EPHEMERIS_TYPE><CLASSIFICATION_TYPE>U</CLASSIFICATION_TYPE><NORAD_CAT_ID>25344</NORAD_CAT_ID><ELEMENT_SET_NO>999</ELEMENT_SET_NO><REV_AT_EPOCH>45333</REV_AT_EPOCH><BSTAR>.15442E-3</BSTAR><MEAN_MOTION_DOT>.643E-5</MEAN_MOTION_DOT><MEAN_MOTION_DDOT>0</MEAN_MOTION_DDOT></tleParameters></data></segment></body></omm>
<omm id="CCSDS_OMM_VERS" version="2.0">
<header><CREATION_DATE/><ORIGINATOR/></header><body><segment><metadata><OBJECT_NAME>IRIDIUM 82</OBJECT_NAME><OBJECT_ID>1998-051A</OBJECT_ID><CENTER_NAME>EARTH</CENTER_NAME><REF_FRAME>TEME</REF_FRAME><TIME_SYSTEM>UTC</TIME_SYSTEM><MEAN_ELEMENT_THEORY>SGP4</MEAN_ELEMENT_THEORY></metadata><data><meanElements><EPOCH>2025-11-20T15:10:53.385312</EPOCH><MEAN_MOTION>15.44390125</MEAN_MOTION><ECCENTRICITY>.00668642</ECCENTRICITY><INCLINATION>86.3641</INCLINATION><RA_OF_ASC_NODE>32.2145</RA_OF_ASC_NODE><ARG_OF_PERICENTER>60.0117</ARG_OF_PERICENTER><MEAN_ANOMALY>300.7752</MEAN_ANOMALY></meanElements><tleParameters><EPHEMERIS_TYPE>0</EPHEMERIS_TYPE><CLASSIFICATION_TYPE>U</CLASSIFICATION_TYPE><NORAD_CAT_ID>25467</NORAD_CAT_ID><ELEMENT_SET_NO>999</ELEMENT_SET_NO><REV_AT_EPOCH>44798</REV_AT_EPOCH><BSTAR>.74656337E-3</BSTAR><MEAN_MOTION_DOT>.37646E-3</MEAN_MOTION_DOT><MEAN_MOTION_DDOT>0</MEAN_MOTION_DDOT></tleParameters></data></segment></body></omm>
</ndm>
