IRIDIUM 63              
1 25286U 98021B   25325.17587043  .00000441  00000+0  14310-3 0  9995
2 25286  86.4007  16.2619 0002400  97.3424 262.8046 14.36711952446382
IRIDIUM 69              
1 25319U 98026A   25325.12194934  .00000620  00000+0  18611-3 0  9992
2 25319  86.4001  29.0752 0001917 166.1135 194.0117 14.41183437445661
IRIDIUM 71              
1 25320U 98026B   25325.11034939  .00000347  00000+0  10120-3 0  9994
2 25320  86.4002  23.7551 0000599  21.5540 338.5685 14.41299601446196
IRIDIUM 73              
1 25344U 98032C   25325.13911716  .00000643  00000+0  15442-3 0  9997
2 25344  86.4408 340.1715 0002403 108.3488 251.7979 14.51947934453337
IRIDIUM 82              
1 25467U 98051A   25324.63256233  .00037646  00000+0  74656-3 0  9999
2 25467  86.3641  32.2145 0066864  60.0117 300.7752 15.44390125447986
